NORAD_CAT_ID,OBJECT_NAME,OBJECT_TYPE,EPOCH,MEAN_MOTION,ECCENTRICITY,INCLINATION,RA_OF_ASC_NODE,ARG_OF_PERICENTER,MEAN_ANOMALY,BSTAR,MEAN_MOTION_DOT,MEAN_MOTION_DDOT,TLE_LINE0,TLE_LINE1,TLE_LINE2,SEMIMAJOR_AXIS,PERIOD,APOGEE,PERIGEE,DECAYED
55398.0,STARLINK-5275,PAYLOAD,2024-03-16 11:03:40,14.98331316,0.0002845,69.9988,87.9382,274.0181,86.0653,-0.00030323,-3.709e-05,0.0,0 STARLINK-5275,1 55398U 23014H   24076.46088984 -.00003709  00000-0 -30323-3 0  9991,2 55398  69.9988  87.9382 0002845 274.0181  86.0653 14.98331316 63725,6950.189,96.107,574.031,570.076,0.0
55398.0,STARLINK-5275,PAYLOAD,2024-03-17 04:41:09,14.98315012,0.0002847,69.9986,86.0866,276.3396,83.7439,4.4397e-05,4.37e-06,0.0,0 STARLINK-5275,1 55398U 23014H   24077.19525314  .00000437  00000-0  44397-4 0  9995,2 55398  69.9986  86.0866 0002847 276.3396  83.7439 14.98315012 62893,6950.239,96.108,574.083,570.126,0.0
55398.0,STARLINK-5275,PAYLOAD,2024-03-17 11:05:42,14.98316732,0.0002816,69.9986,85.4131,275.9096,84.1742,6.0431e-05,6.28e-06,0.0,0 STARLINK-5275,1 55398U 23014H   24077.46229408  .00000628  00000-0  60431-4 0  9999,2 55398  69.9986  85.4131 0002816 275.9096  84.1742 14.98316732 63870,6950.234,96.108,574.056,570.142,0.0
55398.0,STARLINK-5275,PAYLOAD,2024-03-18 03:07:02,14.98320976,0.0002881,69.9984,83.7298,273.7763,86.3066,8.3536e-05,9.04e-06,0.0,0 STARLINK-5275,1 55398U 23014H   24078.12989517  .00000904  00000-0  83536-4 0  9995,2 55398  69.9984  83.7298 0002881 273.7763  86.3066 14.98320976 63038,6950.221,96.108,574.088,570.083,0.0
55398.0,STARLINK-5275,PAYLOAD,2024-03-18 09:31:35,14.98322953,0.0002831,69.9985,83.0565,273.1934,86.8901,0.00010177,1.121e-05,0.0,0 STARLINK-5275,1 55398U 23014H   24078.39693476  .00001121  00000-0  10177-3 0  9992,2 55398  69.9985  83.0565 0002831 273.1934  86.8901 14.98322953 64017,6950.215,96.107,574.047,570.112,0.0
55398.0,STARLINK-5275,PAYLOAD,2024-03-19 03:09:04,14.98326323,0.0002828,69.9986,81.2051,272.4578,87.6257,4.939e-05,4.96e-06,0.0,0 STARLINK-5275,1 55398U 23014H   24079.13129631  .00000496  00000-0  49390-4 0  9996,2 55398  69.9986  81.2051 0002828 272.4578  87.6257 14.98326323 63185,6950.204,96.107,574.035,570.104,0.0
55398.0,STARLINK-5275,PAYLOAD,2024-03-19 09:33:36,14.98326338,0.0002807,69.9989,80.532,271.6118,88.472,4.6498e-05,4.62e-06,0.0,0 STARLINK-5275,1 55398U 23014H   24079.39833696  .00000462  00000-0  46498-4 0  9996,2 55398  69.9989  80.5320 0002807 271.6118  88.4720 14.98326338 64166,6950.204,96.107,574.02,570.118,0.0
55398.0,STARLINK-5275,PAYLOAD,2024-03-20 01:34:56,14.98335656,0.0002904,69.9988,78.8485,274.2479,85.8349,5.337e-05,5.44e-06,0.0,0 STARLINK-5275,1 55398U 23014H   24080.06593056  .00000544  00000-0  53370-4 0  9993,2 55398  69.9988  78.8485 0002904 274.2479  85.8349 14.98335656 63322,6950.175,96.107,574.059,570.022,0.0
55398.0,STARLINK-5275,PAYLOAD,2024-03-20 09:35:36,14.98338546,0.0002829,69.999,78.0073,272.5532,87.5303,8.4909e-05,9.2e-06,0.0,0 STARLINK-5275,1 55398U 23014H   24080.39972631  .00000920  00000-0  84909-4 0  9999,2 55398  69.9990  78.0073 0002829 272.5532  87.5303 14.98338546 64317,6950.166,96.106,573.998,570.065,0.0
55398.0,STARLINK-5275,PAYLOAD,2024-03-21 04:49:13,14.98327859,0.0002543,69.9997,75.9877,268.2022,91.8845,4.7769e-06,-3.6e-07,0.0,0 STARLINK-5275,1 55398U 23014H   24081.20085392 -.00000036  00000-0  47769-5 0  9992,2 55398  69.9997  75.9877 0002543 268.2022  91.8845 14.98327859 63493,6950.2,96.107,573.832,570.297,0.0
55398.0,STARLINK-5275,PAYLOAD,2024-03-21 09:37:38,14.98327326,0.0002598,69.9997,75.4828,269.7035,90.3826,-6.0312e-06,-1.65e-06,0.0,0 STARLINK-5275,1 55398U 23014H   24081.40113474 -.00000165  00000-0 -60312-5 0  9990,2 55398  69.9997  75.4828 0002598 269.7035  90.3826 14.98327326 64464,6950.201,96.107,573.872,570.26,0.0
55398.0,STARLINK-5275,PAYLOAD,2024-03-22 04:51:14,14.98336544,0.000261,69.9998,73.4625,271.5544,88.5316,-2.9299e-05,-4.43e-06,0.0,0 STARLINK-5275,1 55398U 23014H   24082.20224789 -.00000443  00000-0 -29299-4 0  9998,2 55398  69.9998  73.4625 0002610 271.5544  88.5316 14.98336544 63643,6950.173,96.107,573.852,570.224,0.0
55398.0,STARLINK-5275,PAYLOAD,2024-03-22 09:39:40,14.98312886,0.0002379,70.0006,72.9563,291.2656,68.8249,-0.00022696,-2.799e-05,0.0,0 STARLINK-5275,1 55398U 23014H   24082.40255122 -.00002799  00000-0 -22696-3 0  9994,2 55398  70.0006  72.9563 0002379 291.2656  68.8249 14.98312886 63678,6950.246,96.108,573.764,570.457,0.0
55398.0,STARLINK-5275,PAYLOAD,2024-03-22 22:28:44,14.98311917,0.0003012,69.9989,71.6096,277.8608,82.2209,-0.00014301,-1.798e-05,0.0,0 STARLINK-5275,1 55398U 23014H   24082.93663183 -.00001798  00000-0 -14301-3 0  9994,2 55398  69.9989  71.6096 0003012 277.8608  82.2209 14.98311917 64697,6950.249,96.108,574.207,570.02,0.0
55398.0,STARLINK-5275,PAYLOAD,2024-03-23 03:17:09,14.98315521,0.0002903,69.999,71.1054,273.7478,86.3349,-0.00011645,-1.482e-05,0.0,0 STARLINK-5275,1 55398U 23014H   24083.13691076 -.00001482  00000-0 -11645-3 0  9997,2 55398  69.9990  71.1054 0002903 273.7478  86.3349 14.98315521 63780,6950.238,96.108,574.12,570.085,0.0
55398.0,STARLINK-5275,PAYLOAD,2024-03-23 08:05:33,14.98317386,0.0002827,69.9993,70.6004,271.7041,88.3794,-7.0595e-05,-9.35e-06,0.0,0 STARLINK-5275,1 55398U 23014H   24083.33718998 -.00000935  00000-0 -70595-4 0  9994,2 55398  69.9993  70.6004 0002827 271.7041  88.3794 14.98317386 64756,6950.232,96.108,574.062,570.132,0.0
55398.0,STARLINK-5275,PAYLOAD,2024-03-24 04:55:16,14.98336824,0.0002821,69.9993,68.4121,263.0532,97.0306,5.4966e-05,5.63e-06,0.0,0 STARLINK-5275,1 55398U 23014H   24084.20505592  .00000563  00000-0  54966-4 0  9994,2 55398  69.9993  68.4121 0002821 263.0532  97.0306 14.98336824 63948,6950.172,96.107,573.997,570.076,0.0
55398.0,STARLINK-5275,PAYLOAD,2024-03-24 09:43:40,14.98342174,0.0002894,69.9995,67.9069,269.6352,90.4475,0.00013863,1.562e-05,0.0,0 STARLINK-5275,1 55398U 23014H   24084.40532963  .00001562  00000-0  13863-3 0  9998,2 55398  69.9995  67.9069 0002894 269.6352  90.4475 14.98342174 64914,6950.155,96.106,574.032,570.009,0.0
55398.0,STARLINK-5275,PAYLOAD,2024-03-24 22:32:45,14.98331956,0.0002398,70.0007,66.5607,251.2453,108.8446,0.00021254,2.444e-05,0.0,0 STARLINK-5275,1 55398U 23014H   24084.93941491  .00002444  00000-0  21254-3 0  9999,2 55398  70.0007  66.5607 0002398 251.2453 108.8446 14.98331956 64998,6950.187,96.107,573.718,570.385,0.0
55398.0,STARLINK-5275,PAYLOAD,2024-03-25 04:57:17,14.98335105,0.000238,70.0009,65.8872,250.2382,109.852,0.0002211,2.546e-05,0.0,0 STARLINK-5275,1 55398U 23014H   24085.20645142  .00002546  00000-0  22110-3 0  9999,2 55398  70.0009  65.8872 0002380 250.2382 109.8520 14.98335105 64092,6950.177,96.107,573.696,570.388,0.0
55398.0,STARLINK-5275,PAYLOAD,2024-03-25 16:10:14,14.98332192,0.000263,69.9998,64.7072,266.5542,93.5316,-1.1351e-05,-2.28e-06,0.0,0 STARLINK-5275,1 55398U 23014H   24085.67377840 -.00000228  00000-0 -11351-4 0  9990,2 55398  69.9998  64.7072 0002630 266.5542  93.5316 14.98332192 64165,6950.186,96.107,573.879,570.223,0.0
55398.0,STARLINK-5275,PAYLOAD,2024-03-26 04:59:19,14.98325106,0.0002502,70.0002,63.3604,257.6967,102.3912,-0.00014131,-1.778e-05,0.0,0 STARLINK-5275,1 55398U 23014H   24086.20786589 -.00001778  00000-0 -14131-3 0  9993,2 55398  70.0002  63.3604 0002502 257.6967 102.3912 14.98325106 64247,6950.208,96.107,573.812,570.334,0.0
55398.0,STARLINK-5275,PAYLOAD,2024-03-26 08:11:35,14.98325455,0.0002786,70.0002,63.0247,266.1135,93.9706,-0.0001757,-2.188e-05,0.0,0 STARLINK-5275,1 55398U 23014H   24086.34138700 -.00002188  00000-0 -17570-3 0  9990,2 55398  70.0002  63.0247 0002786 266.1135  93.9706 14.98325455 65203,6950.207,96.107,574.008,570.136,0.0
55398.0,STARLINK-5275,PAYLOAD,2024-03-26 16:12:15,14.98332568,0.0002879,70.0006,62.1836,266.5203,93.5626,-9.6467e-05,-1.244e-05,0.0,0 STARLINK-5275,1 55398U 23014H   24086.67518001 -.00001244  00000-0 -96467-4 0  9997,2 55398  70.0006  62.1836 0002879 266.5203  93.5626 14.98332568 64315,6950.185,96.107,574.051,570.049,0.0
55398.0,STARLINK-5275,PAYLOAD,2024-03-26 22:36:47,14.98337392,0.000306,69.9999,61.5104,268.484,91.5968,-7.0472e-05,-9.34e-06,0.0,0 STARLINK-5275,1 55398U 23014H   24086.94221548 -.00000934  00000-0 -70472-4 0  9997,2 55398  69.9999  61.5104 0003060 268.4840  91.5968 14.98337392 65290,6950.17,96.107,574.162,569.908,0.0
55398.0,STARLINK-5275,PAYLOAD,2024-03-27 05:01:19,14.98338646,0.0003043,69.9999,60.837,267.8324,92.2487,-2.7334e-05,-4.19e-06,0.0,0 STARLINK-5275,1 55398U 23014H   24087.20925246 -.00000419  00000-0 -27334-4 0  9990,2 55398  69.9999  60.8370 0003043 267.8324  92.2487 14.98338646 64395,6950.166,96.106,574.146,569.916,0.0
55398.0,STARLINK-5275,PAYLOAD,2024-03-27 08:13:35,14.98342813,0.0003023,70.0001,60.5004,268.5177,91.5636,2.733e-06,-6e-07,0.0,0 STARLINK-5275,1 55398U 23014H   24087.34276804 -.00000060  00000-0  27330-5 0  9992,2 55398  70.0001  60.5004 0003023 268.5177  91.5636 14.98342813 65351,6950.153,96.106,574.119,569.917,0.0
55398.0,STARLINK-5275,PAYLOAD,2024-03-27 22:38:48,14.98326081,0.0003069,70.0002,58.9853,270.3608,89.72,0.00014606,1.65e-05,0.0,0 STARLINK-5275,1 55398U 23014H   24087.94361238  .00001650  00000-0  14606-3 0  9999,2 55398  70.0002  58.9853 0003069 270.3608  89.7200 14.98326081 65440,6950.205,96.107,574.203,569.937,0.0
55398.0,STARLINK-5275,PAYLOAD,2024-03-28 05:03:20,14.98326872,0.0003015,70.0004,58.3129,271.8276,88.2538,0.0001507,1.705e-05,0.0,0 STARLINK-5275,1 55398U 23014H   24088.21065246  .00001705  00000-0  15070-3 0  9997,2 55398  70.0004  58.3129 0003015 271.8276  88.2538 14.98326872 64546,6950.203,96.107,574.163,569.972,0.0
55398.0,STARLINK-5275,PAYLOAD,2024-03-28 08:15:36,14.98331923,0.0003123,70.0003,57.9761,271.1098,88.9703,0.00014856,1.68e-05,0.0,0 STARLINK-5275,1 55398U 23014H   24088.34416899  .00001680  00000-0  14856-3 0  9998,2 55398  70.0003  57.9761 0003123 271.1098  88.9703 14.98331923 65508,6950.187,96.107,574.222,569.881,0.0
